OBJECT_NAME,OBJECT_ID,EPOCH,MEAN_MOTION,ECCENTRICITY,INCLINATION,RA_OF_ASC_NODE,ARG_OF_PERICENTER,MEAN_ANOMALY,EPHEMERIS_TYPE,CLASSIFICATION_TYPE,NORAD_CAT_ID,ELEMENT_SET_NO,REV_AT_EPOCH,BSTAR,MEAN_MOTION_DOT,MEAN_MOTION_DDOT
INTELSAT 21 (IS-21),2012-045A,2026-06-16T17:52:20.091072,1.00270268,.0001331,0.0122,9.4182,96.2317,9.4402,0,U,38749,999,5052,0,-.287E-5,0
INTELSAT 23 (IS-23),2012-057A,2026-06-16T11:37:38.722944,1.00268351,.00002061,0.0177,305.1566,51.2003,29.8210,0,U,38867,999,4994,0,-.286E-5,0
FM-6,2013-058A,2026-06-16T17:35:36.695040,1.00292192,.000326,0.0298,41.7756,152.1782,218.6366,0,U,39360,999,4606,0,0,0
INTELSAT 30 (IS-30),2014-062A,2026-06-17T04:31:06.402720,1.00270128,.0001214,0.0266,49.1982,329.4253,219.5457,0,U,40271,999,679,0,-.155E-5,0
DIRECTV 14,2014-078B,2026-06-16T11:46:38.506944,1.00269953,.0000515,0.0113,18.2775,282.0583,41.8420,0,U,40333,999,4203,0,-.127E-5,0
DIRECTV 15,2015-026A,2026-06-16T11:46:38.506944,1.00270929,.00002172,0.0163,19.7583,245.1602,73.6288,0,U,40663,999,4045,0,-.104E-5,0
SKY MEXICO-1,2015-026B,2026-06-17T03:10:54.790176,1.00270178,.0002046,0.0173,14.3306,92.8977,127.0865,0,U,40664,999,4045,0,-.238E-5,0
INTELSAT 34 (IS-34),2015-039A,2026-06-17T03:06:32.415840,1.00269821,.0000502,0.0102,346.2009,341.7324,288.6032,0,U,40874,999,3963,0,-.289E-5,0
INTELSAT 31 (IS-31),2016-035A,2026-06-17T04:31:06.432096,1.00269665,.0001096,0.0156,274.3550,341.3090,342.5035,0,U,41581,999,3668,0,-.154E-5,0
INTELSAT 36 (IS-36),2016-053A,2026-06-16T22:40:02.265024,1.00270845,.0002182,0.0113,10.1532,322.5607,340.9958,0,U,41747,999,3595,0,-.27E-6,0
INTELSAT 32E (IS-32E),2017-007B,2026-06-16T17:56:34.684224,1.00269086,.0000756,0.0136,6.5518,304.0987,180.3273,0,U,41945,999,3422,0,-.272E-5,0
INTELSAT 35E (IS-35E),2017-041A,2026-06-16T17:59:04.443936,1.00268682,.0001598,0.0182,331.6195,107.3554,61.2978,0,U,42818,999,3281,0,-.241E-5,0
INTELSAT 37E (IS-37E),2017-059A,2026-06-16T18:03:41.501088,1.00271710,.0002368,0.0164,21.9885,84.8898,51.0770,0,U,42950,999,3206,0,-.143E-5,0
AZERSPACE 2 (IS-38),2018-074A,2026-06-16T18:21:44.924256,1.00270536,.0001231,0.0176,5.0049,81.7615,138.8031,0,U,43632,999,2844,0,.134E-5,0
HORIZONS-3E,2018-074B,2026-06-16T17:14:23.729280,1.00271949,.000086,0.0189,168.8622,107.3388,56.3811,0,U,43633,999,2833,0,-.33E-6,0
AT&T T-16,2019-034A,2026-06-16T15:57:24.126048,1.00268512,.0000804,0.0218,61.0762,214.9067,127.4309,0,U,44333,999,2562,0,-.117E-5,0
INTELSAT 39 (IS-39),2019-049B,2026-06-16T22:32:04.249248,1.00269114,.0000945,0.0008,356.4174,318.0874,350.6593,0,U,44476,999,2512,0,.31E-6,0
GALAXY 30 (G-30),2020-056C,2026-06-16T17:33:14.421024,1.00271138,.0002091,0.0145,29.2782,56.6246,317.3968,0,U,46114,999,2128,0,.34E-6,0
GALAXY 33 (G-33),2022-128A,2026-06-17T02:57:45.056160,1.00272042,.0001618,0.0114,31.1286,56.8949,88.8023,0,U,54026,999,1374,0,.75E-6,0
GALAXY 34 (G-34),2022-128B,2026-06-16T17:32:07.029024,1.00275753,.0001547,0.0271,1.5825,103.0523,294.4009,0,U,54027,999,1390,0,0,0
GALAXY 31 (G-31),2022-153A,2026-06-16T15:51:39.676032,1.00270955,.0001015,0.0148,38.7615,36.8277,306.2392,0,U,54243,999,712,0,.11E-6,0
GALAXY 32 (G-32),2022-153B,2026-06-14T22:56:24.476640,1.00491998,.0015287,0.0165,349.6788,254.3091,272.5395,0,U,54244,999,1312,0,-.197E-5,0
GALAXY 35 (G-35),2022-170A,2026-06-17T03:01:16.973760,1.00270063,.0001862,0.0176,53.5182,33.3250,130.7427,0,U,54741,999,1289,0,-.166E-5,0
GALAXY 36 (G-36),2022-170B,2026-06-16T14:17:58.327872,1.00270255,.0002502,0.0179,256.2701,187.9042,306.1810,0,U,54742,999,1276,0,-.187E-5,0
GALAXY 37 (G-37),2023-112A,2026-06-15T22:43:09.772032,1.00271514,.00016993,0.0257,63.8054,18.0301,36.1756,0,U,57493,999,1053,0,.49E-6,0
